{
    "links": {
        "self": "http://www.neowsapp.com/rest/v1/neo/3448531?api_key=iIulBulltgU6a56xZRHN4H3l9WmuAYTsLGpBGhQ2"
    },
    "id": "3448531",
    "neo_reference_id": "3448531",
    "name": "(2009 DS36)",
    "designation": "2009 DS36",
    "nasa_jpl_url": "http://ssd.jpl.nasa.gov/sbdb.cgi?sstr=3448531",
    "absolute_magnitude_h": 25.7,
    "estimated_diameter": {
        "kilometers": {
            "estimated_diameter_min": 0.0192555078,
            "estimated_diameter_max": 0.0430566244
        },
        "meters": {
            "estimated_diameter_min": 19.2555078188,
            "estimated_diameter_max": 43.0566244241
        },
        "miles": {
            "estimated_diameter_min": 0.0119648141,
            "estimated_diameter_max": 0.0267541378
        },
        "feet": {
            "estimated_diameter_min": 63.1742402722,
            "estimated_diameter_max": 141.2618956756
        }
    },
    "is_potentially_hazardous_asteroid": false,
    "close_approach_data": [
        {
            "close_approach_date": "2001-02-12",
            "close_approach_date_full": "2001-Feb-12 21:12",
            "epoch_date_close_approach": 982012320000,
            "relative_velocity": {
                "kilometers_per_second": "11.4609606168",
                "kilometers_per_hour": "41259.4582203745",
                "miles_per_hour": "25637.0228036544"
            },
            "miss_distance": {
                "astronomical": "0.2384533872",
                "lunar": "92.7583676208",
                "kilometers": "35672118.819405264",
                "miles": "22165626.8006060832"
            },
            "orbiting_body": "Earth"
        },
        {
            "close_approach_date": "2009-02-24",
            "close_approach_date_full": "2009-Feb-24 04:09",
            "epoch_date_close_approach": 1235448540000,
            "relative_velocity": {
                "kilometers_per_second": "10.1062673167",
                "kilometers_per_hour": "36382.5623401884",
                "miles_per_hour": "22606.7093607687"
            },
            "miss_distance": {
                "astronomical": "0.0469677953",
                "lunar": "18.2704723717",
                "kilometers": "7026282.135476011",
                "miles": "4365929.2681545118"
            },
            "orbiting_body": "Earth"
        },
        {
            "close_approach_date": "2017-03-06",
            "close_approach_date_full": "2017-Mar-06 12:22",
            "epoch_date_close_approach": 1488802920000,
            "relative_velocity": {
                "kilometers_per_second": "12.2919264415",
                "kilometers_per_hour": "44250.9351894983",
                "miles_per_hour": "27495.8102570524"
            },
            "miss_distance": {
                "astronomical": "0.1975930538",
                "lunar": "76.8636979282",
                "kilometers": "29559499.975275406",
                "miles": "18367421.5759803628"
            },
            "orbiting_body": "Earth"
        }
    ],
    "orbital_data": {
        "orbit_id": "9",
        "orbit_determination_date": "2017-04-06 09:01:15",
        "first_observation_date": "2009-02-25",
        "last_observation_date": "2009-03-03",
        "data_arc_in_days": 6,
        "observations_used": 48,
        "orbit_uncertainty": "7",
        "minimum_orbit_intersection": ".0454614",
        "jupiter_tisserand_invariant": "4.739",
        "epoch_osculation": "2459000.5",
        "eccentricity": ".2509171279254908",
        "semi_major_axis": "1.37186513021223",
        "inclination": "17.86527418532425",
        "ascending_node_longitude": "337.1589312554428",
        "orbital_period": "586.9019507368395",
        "perihelion_distance": "1.027640671838248",
        "perihelion_argument": "163.5631372373614",
        "aphelion_distance": "1.716089588586212",
        "perihelion_time": "2458979.369725314656",
        "mean_anomaly": "12.9611068376476",
        "mean_motion": ".6133903619642597",
        "equinox": "J2000",
        "orbit_class": {
            "orbit_class_type": "AMO",
            "orbit_class_description": "Near-Earth asteroid orbits similar to that of 1221 Amor",
            "orbit_class_range": "1.017 AU < q (perihelion) < 1.3 AU"
        }
    },
    "is_sentry_object": false
}